{
  "id": 16,
  "name": "Alger",
  "postalCode": "16000",
  "address": [
    {
      "name": "Alger",
      "postalCode": "16000",
      "otherPosts": [
        { "name": "Alger 1er Novembre", "postalCode": "16001" },
        { "name": "Alger Mourad Didouche", "postalCode": "16002" },
        { "name": "Alger 1er Mai", "postalCode": "16007" },
        { "name": "Alger Bab el Oued", "postalCode": "16008" },
        { "name": "Alger El Anasser", "postalCode": "16009" },
        { "name": "Alger Ferhat Boussad", "postalCode": "16010" },
        { "name": "Alger Port Said", "postalCode": "16011" },
        { "name": "Alger Sidi Mhamed", "postalCode": "16012" },
        { "name": "Alger Ali Basta", "postalCode": "16020" },
        { "name": "Alger El Kettani", "postalCode": "16021" },
        { "name": "Alger Haute Casbah", "postalCode": "16022" },
        { "name": "Alger Malika Gaid", "postalCode": "16023" },
        { "name": "Alger Hassiba Ben Bouali", "postalCode": "16037" },
        { "name": "Alger 7 Merveilles", "postalCode": "16038" },
        { "name": "Alger Khelifa Boukhalfa", "postalCode": "16039" },
        { "name": "Alger Tarik Ibn Ziad", "postalCode": "16041" },
        { "name": "Alger Freres Bellili", "postalCode": "16066" },
        { "name": "Alger Freres Si Bachir", "postalCode": "16067" },
        { "name": "Alger Ahcene Askri", "postalCode": "16068" },
        { "name": "Alger Ali Ourak", "postalCode": "16070" },
        { "name": "Alger APN", "postalCode": "16071" },
        { "name": "Alger Boulevard des Martyrs", "postalCode": "16072" },
        { "name": "Alger Diar el Mahcoul", "postalCode": "16074" },
        { "name": "Alger Les Sources", "postalCode": "16075" },
        { "name": "Alger Mahieddine", "postalCode": "16076" },
        { "name": "Alger Port", "postalCode": "16077" },
        { "name": "Alger Bab el Oued CHU", "postalCode": "16131" },
        { "name": "Alger CHU Mustapha", "postalCode": "16131" },
        { "name": "Alger Mohamed Douar", "postalCode": "16151" },
        { "name": "Alger Brahim Gharafa", "postalCode": "16155" },
        { "name": "Alger Rachid Kouache", "postalCode": "16156" },
        { "name": "Alger Ethaalibi", "postalCode": "16157" },
        { "name": "Alger Ben Mhidi", "postalCode": "16158" },
        { "name": "Alger Amara Rachid", "postalCode": "16159" },
        { "name": "Alger Asselah Hocine", "postalCode": "16172" },
        { "name": "Alger La Concorde", "postalCode": "16173" },
        { "name": "Alger Ben Mbarek Abdelkader", "postalCode": "16182" },
        { "name": "Alger EPRS", "postalCode": "16197" },
        { "name": "Alger Centre La Faculte Centrale", "postalCode": "16213" },
        { "name": "Alger Gare Maritime", "postalCode": "16216" }
      ]
    },
    {
      "name": "El Biar",
      "postalCode": "16003",
      "otherPosts": [
        { "name": "El Biar Bougara", "postalCode": "16034" },
        { "name": "El Biar Ali Khoudja", "postalCode": "16138" },
        {
          "name": "El Biar Ministere de l'Industrie et des Mines",
          "postalCode": "16217"
        },
        { "name": "El Biar Ministere des Moudjahidines", "postalCode": "16218" }
      ]
    },
    { "name": "Bir Mourad Rais", "postalCode": "16013" },
    { "name": "El Madania", "postalCode": "16015" },
    { "name": "Hydra", "postalCode": "16016" },
    {
      "name": "Birkhadem",
      "postalCode": "16029",
      "otherPosts": [
        {
          "name": "Birkhadem Ministere de la Solidarite Nationale de la Famille et de la Condition de la Femme",
          "postalCode": "16212"
        }
      ]
    },
    { "name": "Bologhine", "postalCode": "16030" },
    {
      "name": "El Mouradia",
      "postalCode": "16035",
      "otherPosts": [{ "name": "El Mouradia Aoudia", "postalCode": "16052" }]
    },
    { "name": "Rais Hamidou", "postalCode": "16060" },
    {
      "name": "Said Hamdine",
      "postalCode": "16078",
      "otherPosts": [
        { "name": "Said Hamdine Faculte de Droit", "postalCode": "16203" }
      ]
    },
    { "name": "Bains Romains", "postalCode": "16082" },
    { "name": "Cap Caxine", "postalCode": "16085" },
    { "name": "Tixeraine", "postalCode": "16100" },
    {
      "name": "Cheraga",
      "postalCode": "16014",
      "otherPosts": [
        { "name": "Cheraga Banlieue", "postalCode": "16086" },
        { "name": "Cheraga CGN", "postalCode": "16176" },
        { "name": "Cheraga Nord", "postalCode": "16178" },
        { "name": "Cheraga Les Dunes", "postalCode": "16208" }
      ]
    },
    {
      "name": "Ain Benian",
      "postalCode": "16018",
      "otherPosts": [
        { "name": "Ain Benian 18 Fevrier", "postalCode": "16101" },
        { "name": "Ain Benian Belle Vue", "postalCode": "16225" }
      ]
    },
    {
      "name": "Ben Aknoun",
      "postalCode": "16028",
      "otherPosts": [
        { "name": "Ben Aknoun Cite Malki", "postalCode": "16043" },
        {
          "name": "Ben Aknoun - Residence Universitaire Taleb Abderrahmane 1",
          "postalCode": "16180"
        },
        {
          "name": "Ben Aknoun Faculte des Sciences Politiques",
          "postalCode": "16191"
        },
        { "name": "Ben Aknoun - Conseil d'Etat", "postalCode": "16206" }
      ]
    },
    { "name": "Bouzereah", "postalCode": "16032" },
    { "name": "Rostomia", "postalCode": "16040" },
    { "name": "Beni Messous", "postalCode": "16044" },
    { "name": "Birtouta", "postalCode": "16045" },
    {
      "name": "Dely Brahim",
      "postalCode": "16047",
      "otherPosts": [
        { "name": "Dely Brahim Universite d'Alger 3", "postalCode": "16193" }
      ]
    },
    { "name": "Douera", "postalCode": "16049" },
    {
      "name": "Draria",
      "postalCode": "16050",
      "otherPosts": [{ "name": "Draria 2", "postalCode": "16186" }]
    },
    {
      "name": "Staoueli",
      "postalCode": "16062",
      "otherPosts": [
        { "name": "Staoueli Club des Pins", "postalCode": "16098" },
        { "name": "Staoueli - Bouregaa", "postalCode": "16171" }
      ]
    },
    {
      "name": "Zeralda",
      "postalCode": "16063",
      "otherPosts": [
        { "name": "Zeralda Bd Souidani", "postalCode": "16110" },
        {
          "name": "Zeralda - Sidi Menif Ecole Police Judiciaire",
          "postalCode": "16160"
        },
        { "name": "Zeralda Sidi Menif", "postalCode": "16184" },
        { "name": "Zeralda 1000 Lgts", "postalCode": "16227" }
      ]
    },
    { "name": "Alger Cour Supreme", "postalCode": "16073" },
    { "name": "Alger Ziani (police)", "postalCode": "16080" },
    {
      "name": "Baba Hassen",
      "postalCode": "16081",
      "otherPosts": [
        { "name": "Baba Hassen 20 Aout 1956", "postalCode": "16192" }
      ]
    },
    { "name": "Bouchaoui", "postalCode": "16084" },
    { "name": "El Hammadia", "postalCode": "16089" },
    { "name": "Kheraicia", "postalCode": "16091" },
    { "name": "Mahelma", "postalCode": "16093" },
    {
      "name": "Ouled Fayet",
      "postalCode": "16094",
      "otherPosts": [
        { "name": "Ouled Fayet AADL 1", "postalCode": "16175" },
        { "name": "Ouled Fayet Universite", "postalCode": "16179" },
        { "name": "Ouled Fayet Plateau", "postalCode": "16185" }
      ]
    },
    { "name": "Saoula", "postalCode": "16095" },
    { "name": "Sidi Fredj", "postalCode": "16096" },
    {
      "name": "Souidnia",
      "postalCode": "16097",
      "otherPosts": [
        { "name": "Souidania - Hai Brahim Mohamed", "postalCode": "16133" },
        { "name": "Souidania Hai Djaadi", "postalCode": "16149" }
      ]
    },
    { "name": "Tessala el Merdja", "postalCode": "16099" },
    { "name": "El Achour", "postalCode": "16104" },
    { "name": "Oued Romane", "postalCode": "16106" },
    { "name": "Ouled Sidi Lakhel", "postalCode": "16107" },
    {
      "name": "Sidi Youcef",
      "postalCode": "16109",
      "otherPosts": [
        { "name": "Sidi Youcef Kouidri 389 Lgts", "postalCode": "16137" }
      ]
    },
    {
      "name": "Baba Ali",
      "postalCode": "16111",
      "otherPosts": [
        { "name": "Baba Ali Zouina", "postalCode": "16146" },
        { "name": "Baba Ali 1 299 Lgts", "postalCode": "16190" }
      ]
    },
    { "name": "El Amara", "postalCode": "16113" },
    { "name": "El Bridja", "postalCode": "16114" },
    { "name": "Mazafran", "postalCode": "16117" },
    { "name": "Ouled Chebel", "postalCode": "16118" },
    { "name": "Ouled Mendhil", "postalCode": "16119" },
    { "name": "Quartier 11 Decembre", "postalCode": "16120" },
    {
      "name": "Rahmania",
      "postalCode": "16121",
      "otherPosts": [
        { "name": "Rahmania - Hai Naamane Lamri", "postalCode": "16134" },
        { "name": "Rahmania 300 Lgts", "postalCode": "16233" }
      ]
    },
    { "name": "Ramdania", "postalCode": "16122" },
    { "name": "Sidi Boukhris", "postalCode": "16124" },
    { "name": "Sidi Hassen", "postalCode": "16125" },
    { "name": "Zaatria", "postalCode": "16126" },
    { "name": "Katiba el Djelloulia", "postalCode": "16128" },

    {
      "name": "Sebala",
      "postalCode": "16148",
      "otherPosts": [{ "name": "Sebala AADL 1", "postalCode": "16181" }]
    },

    {
      "name": "Sidi Abdellah AADL",
      "postalCode": "16201",
      "otherPosts": [
        { "name": "Sidi Abdellah 1067 Lgts", "postalCode": "16202" },
        { "name": "Sidi Abdellah Cyber Parc", "postalCode": "16209" }
      ]
    },
    { "name": "Ouled Slimane", "postalCode": "16219" },
    { "name": "Chaiba 3216 Lgts", "postalCode": "16226" },
    { "name": "Ouled Belhadj", "postalCode": "16234" },
    {
      "name": "El Harrach",
      "postalCode": "16004",
      "otherPosts": [
        { "name": "El Harrach H Badi", "postalCode": "16051" },
        { "name": "Freres Zmirli", "postalCode": "16144" }
      ]
    },
    {
      "name": "Hussein Dey",
      "postalCode": "16005",
      "otherPosts": [
        { "name": "Hussein Dey 8 Mai (Brossette)", "postalCode": "16136" },
        { "name": "Hai Mer et Soleil", "postalCode": "16150" }
      ]
    },
    {
      "name": "Kouba",
      "postalCode": "16006",
      "otherPosts": [
        { "name": "Kouba Les Annassers", "postalCode": "16055" },
        { "name": "Kouba Garidi", "postalCode": "16056" },
        { "name": "Kouba Cite Semrouni", "postalCode": "16092" },
        { "name": "Kouba El Mandher el Djamil", "postalCode": "16147" },
        { "name": "Kouba Garidi 1B", "postalCode": "16153" },
        { "name": "Residence Universitaire Garidi 1", "postalCode": "16163" },
        {
          "name": "Residence Universitaire Vieux Kouba",
          "postalCode": "16169"
        },
        { "name": "Kouba GRI", "postalCode": "16198" }
      ]
    },
    {
      "name": "Rouiba",
      "postalCode": "16017",
      "otherPosts": [{ "name": "Rouiba ENPEI", "postalCode": "16174" }]
    },
    { "name": "Ain Taya", "postalCode": "16019" },
    { "name": "Bab Ezzouar", "postalCode": "16024" },
    {
      "name": "Bachdjerrah",
      "postalCode": "16026",
      "otherPosts": [{ "name": "Bachdjerrah AADL", "postalCode": "16204" }]
    },
    {
      "name": "Baraki",
      "postalCode": "16027",
      "otherPosts": [
        { "name": "Baraki Si Lakhdar", "postalCode": "16083" },
        { "name": "Baraki Boulevard Mohamed Belarbi", "postalCode": "16139" },
        { "name": "Baraki 360 Lgts", "postalCode": "16141" },
        { "name": "Baraki Houch el Mihoub", "postalCode": "16224" }
      ]
    },
    {
      "name": "Bordj el Kiffan",
      "postalCode": "16031",
      "otherPosts": [
        { "name": "Bordj el Kiffan Faizi", "postalCode": "16135" },
        { "name": "Bordj el Kiffan Lido", "postalCode": "16199" },
        { "name": "Bordj el Kiffan Benziane", "postalCode": "16222" },
        { "name": "Bordj el Kiffan Kaidi Mohamed", "postalCode": "16223" }
      ]
    },
    {
      "name": "Dar el Beida",
      "postalCode": "16033",
      "otherPosts": [
        { "name": "Dar el Beida - Freres Achouri", "postalCode": "16129" },
        { "name": "Alger Aeroport Houari Boumedienne", "postalCode": "16130" },
        { "name": "Dar el Beida Ecole de Police", "postalCode": "16196" }
      ]
    },
    {
      "name": "Reghaia",
      "postalCode": "16036",
      "otherPosts": [
        { "name": "Reghaia Plateau", "postalCode": "16108" },
        { "name": "Reghaia Djaafari", "postalCode": "16123" },
        { "name": "Reghaia GIR", "postalCode": "16183" },
        { "name": "Reghaia Ali Khoudja", "postalCode": "16220" },
        { "name": "Reghaia Aissat Mustapha", "postalCode": "16221" }
      ]
    },
    {
      "name": "Bab Ezzouar",
      "postalCode": "16042",
      "otherPosts": [
        { "name": "Alger USTHB", "postalCode": "16079" },
        { "name": "Bab Ezzouar La Concorde", "postalCode": "16154" },
        {
          "name": "Residence Universitaire Bab Ezzouar 2",
          "postalCode": "16164"
        },
        {
          "name": "Residence Universitaire Bab Ezzouar 3",
          "postalCode": "16165"
        },
        {
          "name": "Residence Universitaire Bab Ezzouar 4",
          "postalCode": "16166"
        },
        {
          "name": "Residence Universitaire Bab Ezzouar 1",
          "postalCode": "16168"
        },
        { "name": "Bab Ezzouar AADL 1", "postalCode": "16187" },
        {
          "name": "Residence Universitaire Bab Ezzouar 5",
          "postalCode": "16207"
        }
      ]
    },
    { "name": "Bordj el Bahri", "postalCode": "16046" },
    {
      "name": "Djisr Kacentina",
      "postalCode": "16048",
      "otherPosts": [{ "name": "Djisr Kacentina AADL", "postalCode": "16188" }]
    },
    { "name": "Hai el Badr", "postalCode": "16053" },
    { "name": "Hai el Fida", "postalCode": "16054" },
    {
      "name": "Les Eucalyptus",
      "postalCode": "16057",
      "otherPosts": [
        { "name": "Les Eucalyptus 500 Lgts", "postalCode": "16145" }
      ]
    },
    {
      "name": "Mohammadia",
      "postalCode": "16058",
      "otherPosts": [{ "name": "Djamaa el Djazair", "postalCode": "16231" }]
    },
    { "name": "Oued Smar", "postalCode": "16059" },
    { "name": "Sidi Moussa", "postalCode": "16061" },
    {
      "name": "Ain Naadja",
      "postalCode": "16065",
      "otherPosts": [
        { "name": "Ain Naadja Houari Boumedienne", "postalCode": "16064" },
        { "name": "Ain Naadja Hopital Central ANP", "postalCode": "16105" },
        { "name": "Ain Naadja 196 Lgts", "postalCode": "16142" }
      ]
    },
    { "name": "Alger Ahcene Djanki", "postalCode": "16069" },
    {
      "name": "Dergana",
      "postalCode": "16087",
      "otherPosts": [{ "name": "Dergana 2", "postalCode": "16195" }]
    },
    { "name": "Diar el Djemaa", "postalCode": "16088" },
    { "name": "Hai el Djamil", "postalCode": "16090" },
    { "name": "Algerie Telecom Cinq Maisons", "postalCode": "16102" },
    { "name": "Alger Plage", "postalCode": "16103" },
    { "name": "El Marsa", "postalCode": "16115" },
    { "name": "Heraoua", "postalCode": "16116" },
    { "name": "Cherarba 917 Lgts", "postalCode": "16140" },
    { "name": "Bentelha", "postalCode": "16143" },
    { "name": "El Makkaria", "postalCode": "16152" },
    { "name": "Kharrouba Gare Routiere", "postalCode": "16161" },
    {
      "name": "Bourouba",
      "postalCode": "16162",
      "otherPosts": [{ "name": "Bourouba SRFE", "postalCode": "16194" }]
    },
    { "name": "Residence Universitaire Bouraoui Amar", "postalCode": "16167" },
    { "name": "Sidi Moussa El Rais", "postalCode": "16189" },
    { "name": "El Hamiz", "postalCode": "16211" }
  ]
}
