{
  "id": 34,
  "name": "Bordj Bou Arreridj",
  "postalCode": "34000",
  "dairas": [
    {
      "name": "Bordj Bou Arreridj",
      "communes": [
        {
          "name": "Bordj Bou Arreridj",
          "codeONS": "",
          "postalCode": "34000",
          "otherPosts": []
        }
      ]
    },
    {
      "name": "Ain Taghrout",
      "communes": [
        {
          "name": "Bordj Bou Arreridj",
          "codeONS": "",
          "postalCode": "34000",
          "otherPosts": []
        }
      ]
    },
    {
      "name": "Ras El Oued",
      "communes": [
        {
          "name": "Bordj Bou Arreridj",
          "codeONS": "",
          "postalCode": "34000",
          "otherPosts": []
        }
      ]
    },
    {
      "name": "Bordj Ghedir",
      "communes": [
        {
          "name": "Bordj Bou Arreridj",
          "codeONS": "",
          "postalCode": "34000",
          "otherPosts": []
        }
      ]
    },
    {
      "name": "Bir Kasdali",
      "communes": [
        {
          "name": "Bordj Bou Arreridj",
          "codeONS": "",
          "postalCode": "34000",
          "otherPosts": []
        }
      ]
    },
    {
      "name": "El Hamadia",
      "communes": [
        {
          "name": "Bordj Bou Arreridj",
          "codeONS": "",
          "postalCode": "34000",
          "otherPosts": []
        }
      ]
    },
    {
      "name": "Mansoura",
      "communes": [
        {
          "name": "Bordj Bou Arreridj",
          "codeONS": "",
          "postalCode": "34000",
          "otherPosts": []
        }
      ]
    },
    {
      "name": "Medjana",
      "communes": [
        {
          "name": "Bordj Bou Arreridj",
          "codeONS": "",
          "postalCode": "34000",
          "otherPosts": []
        }
      ]
    },
    {
      "name": "Bordj Zemoura",
      "communes": [
        {
          "name": "Bordj Bou Arreridj",
          "codeONS": "",
          "postalCode": "34000",
          "otherPosts": []
        }
      ]
    },
    {
      "name": "Djaafra",
      "communes": [
        {
          "name": "Bordj Bou Arreridj",
          "codeONS": "",
          "postalCode": "34000",
          "otherPosts": []
        }
      ]
    }
  ],
  "address": [
    {
      "name": "Bordj Bou Arreridj",
      "postalCode": "34000",
      "otherPosts": [
        { "name": "Bordj-Bou-Arreridj Ben Badis", "postalCode": "34002" },
        { "name": "Bordj-Bou-Arreridj Mokrani", "postalCode": "34003" },
        { "name": "Bordj Bou Arreridj 24 Fevrier", "postalCode": "34012" },
        { "name": "Bordj Bou Arreridj Es Saada", "postalCode": "34013" },
        { "name": "Bordj Bou Arreridj Cite Mokafihine", "postalCode": "34024" },
        { "name": "Bordj Bou Arreridj 20 Aout", "postalCode": "34064" },
        { "name": "Bordj Bou Arreridj Universite", "postalCode": "34069" }
      ]
    },
    {
      "name": "Ras el Oued",
      "postalCode": "34001",
      "otherPosts": [{ "name": "Ras el Oued 19 Mars", "postalCode": "34065" }]
    },
    { "name": "Bordj Ghedir", "postalCode": "34004" },
    {
      "name": "Bordj Zemmoura",
      "postalCode": "34005",
      "otherPosts": [
        { "name": "Bordj Zemmoura 1er Novembre", "postalCode": "34067" }
      ]
    },
    { "name": "El Achir", "postalCode": "34006" },
    { "name": "Khellil", "postalCode": "34007" },
    { "name": "Mansoura", "postalCode": "34008" },
    { "name": "Medjana", "postalCode": "34009" },
    { "name": "Ain Taghrout", "postalCode": "34010" },
    { "name": "Bir Kasdali", "postalCode": "34011" },
    { "name": "Cherchar", "postalCode": "34014" },
    { "name": "Colla", "postalCode": "34015" },
    { "name": "Djaafra", "postalCode": "34016" },
    { "name": "El Hammadia", "postalCode": "34017" },
    { "name": "El Main", "postalCode": "34018" },
    { "name": "El Mehir", "postalCode": "34019" },
    { "name": "Sidi Embarek", "postalCode": "34020" },
    { "name": "Teniet En Nasr", "postalCode": "34021" },
    { "name": "Tixter", "postalCode": "34022" },
    { "name": "Ain Soltane", "postalCode": "34023" },
    { "name": "Bel Imour", "postalCode": "34025" },
    { "name": "Beni Laalem", "postalCode": "34026" },
    { "name": "Bir Aissa", "postalCode": "34027" },
    { "name": "Chefaa", "postalCode": "34028" },
    { "name": "El Ach", "postalCode": "34029" },
    { "name": "El Annasser", "postalCode": "34030" },
    { "name": "Ghilassa", "postalCode": "34031" },
    { "name": "Ouled Braham", "postalCode": "34032" },
    { "name": "Ouled Dahmane", "postalCode": "34033" },
    { "name": "Ouled Rached", "postalCode": "34034" },
    { "name": "Rabta", "postalCode": "34035" },
    { "name": "Ain Kahla", "postalCode": "34036" },
    { "name": "Ain Tassera", "postalCode": "34037" },
    { "name": "Ayada", "postalCode": "34038" },
    { "name": "Bendaoud", "postalCode": "34039" },
    { "name": "Bir Hamoudi", "postalCode": "34040" },
    { "name": "Bir Snab", "postalCode": "34041" },
    { "name": "Boukaba", "postalCode": "34042" },
    { "name": "Boulhaf", "postalCode": "34043" },
    { "name": "Chenia Beni Henaya Saad", "postalCode": "34044" },
    { "name": "El Hamra", "postalCode": "34045" },
    { "name": "Guemour", "postalCode": "34046" },
    { "name": "Haraza", "postalCode": "34047" },
    { "name": "Ksour", "postalCode": "34048" },
    { "name": "Oued Lakhdar", "postalCode": "34050" },
    { "name": "Ouled Mahdi", "postalCode": "34051" },
    { "name": "Ouled Sidi Brahim", "postalCode": "34052" },
    { "name": "Ouled Zaid", "postalCode": "34053" },
    { "name": "Ras el Ain", "postalCode": "34054" },
    { "name": "R'mail", "postalCode": "34055" },
    { "name": "Sedrata", "postalCode": "34056" },
    { "name": "Selatna", "postalCode": "34057" },
    { "name": "Sidi Idir", "postalCode": "34058" },
    { "name": "Taglait", "postalCode": "34059" },
    { "name": "Tassameurt", "postalCode": "34060" },
    { "name": "Teffreg", "postalCode": "34061" },
    { "name": "Tizi Kachouchene", "postalCode": "34062" },
    { "name": "Zenouna", "postalCode": "34063" },
    { "name": "El Hamma 8 Mai 1945", "postalCode": "34066" },
    { "name": "Ouled Mebarek", "postalCode": "34068" },
    { "name": "Lechbour", "postalCode": "34070" },
    { "name": "Ouled Hamza", "postalCode": "34071" },
    { "name": "Tizi Ahcene", "postalCode": "34072" },
    { "name": "Ain Noug", "postalCode": "34073" },
    { "name": "Ain Defla", "postalCode": "34074" }
  ]
}
