{
  "id": 24,
  "name": "Guelma",
  "postalCode": "24000",
  "dairas": [
    {
      "name": "Guelma",
      "communes": [
        {
          "name": "Guelma",
          "codeONS": "",
          "postalCode": "24000",
          "otherPosts": []
        }
      ]
    },
    {
      "name": "Khezarra",
      "communes": [
        {
          "name": "Guelma",
          "codeONS": "",
          "postalCode": "24000",
          "otherPosts": []
        }
      ]
    },
    {
      "name": "Guelaat Bou Sbaa",
      "communes": [
        {
          "name": "Guelma",
          "codeONS": "",
          "postalCode": "24000",
          "otherPosts": []
        }
      ]
    },
    {
      "name": "Heliopolis",
      "communes": [
        {
          "name": "Guelma",
          "codeONS": "",
          "postalCode": "24000",
          "otherPosts": []
        }
      ]
    },
    {
      "name": "Oued Zenati",
      "communes": [
        {
          "name": "Guelma",
          "codeONS": "",
          "postalCode": "24000",
          "otherPosts": []
        }
      ]
    },
    {
      "name": "Ain Makhlouf",
      "communes": [
        {
          "name": "Guelma",
          "codeONS": "",
          "postalCode": "24000",
          "otherPosts": []
        }
      ]
    },
    {
      "name": "Hammam Debagh",
      "communes": [
        {
          "name": "Guelma",
          "codeONS": "",
          "postalCode": "24000",
          "otherPosts": []
        }
      ]
    },
    {
      "name": "Bouchegouf",
      "communes": [
        {
          "name": "Guelma",
          "codeONS": "",
          "postalCode": "24000",
          "otherPosts": []
        }
      ]
    },
    {
      "name": "Hammam Nâ€™Bails",
      "communes": [
        {
          "name": "Guelma",
          "codeONS": "",
          "postalCode": "24000",
          "otherPosts": []
        }
      ]
    },
    {
      "name": "Houari Boumedienne",
      "communes": [
        {
          "name": "Guelma",
          "codeONS": "",
          "postalCode": "24000",
          "otherPosts": []
        }
      ]
    }
  ],
  "address": [
    {
      "name": "Guelma",
      "postalCode": "24000",
      "otherPosts": [
        { "name": "Guelma Agabi", "postalCode": "24003" },
        { "name": "Guelma Emir Abdelkader", "postalCode": "24004" },
        { "name": "Guelma La Mouna", "postalCode": "24006" },
        { "name": "Guelma Ain Defla", "postalCode": "24021" },
        { "name": "Guelma Ain Defla Sup", "postalCode": "24022" },
        { "name": "Guelma Cite des Freres Rahabi", "postalCode": "24023" },
        { "name": "Guelma Universite", "postalCode": "24054" }
      ]
    },
    { "name": "Oued Zenati", "postalCode": "24001" },
    { "name": "Bouchegouf", "postalCode": "24002" },
    { "name": "Boumahra Ahmed", "postalCode": "24005" },
    { "name": "Hammam Debagh", "postalCode": "24007" },
    { "name": "Heliopolis", "postalCode": "24008" },
    { "name": "Oued Cheham", "postalCode": "24009" },
    { "name": "Tamlouka", "postalCode": "24010" },
    { "name": "Ain ben Beida", "postalCode": "24011" },
    { "name": "Ain Larbi", "postalCode": "24012" },
    { "name": "Ain Makhlouf", "postalCode": "24013" },
    { "name": "Ain Regada", "postalCode": "24014" },
    { "name": "Belkheir", "postalCode": "24015" },
    { "name": "Ben Smih", "postalCode": "24016" },
    { "name": "Bordj Sabath", "postalCode": "24017" },
    { "name": "Bordj Mahmoud", "postalCode": "24018" },
    { "name": "El Fedjoudj", "postalCode": "24019" },
    { "name": "Guelaat Bou Sbaa", "postalCode": "24020" },
    { "name": "Hammam N'bails", "postalCode": "24024" },
    { "name": "Houari Boumedienne", "postalCode": "24025" },
    { "name": "Medjez Sfa", "postalCode": "24026" },
    { "name": "Nechmeya", "postalCode": "24027" },
    { "name": "Roknia", "postalCode": "24028" },
    { "name": "Sellaoua Announa", "postalCode": "24029" },
    { "name": "Ain Arko", "postalCode": "24030" },
    { "name": "Ain Mebarka", "postalCode": "24031" },
    { "name": "Ain Souda", "postalCode": "24032" },
    { "name": "Ain Trab", "postalCode": "24033" },
    { "name": "Bendjerrah", "postalCode": "24034" },
    { "name": "Bentabouche", "postalCode": "24035" },
    { "name": "Bled Gaffar", "postalCode": "24036" },
    { "name": "Bouhachana", "postalCode": "24037" },
    { "name": "Boukamouza", "postalCode": "24038" },
    { "name": "Djeballah Khemissi", "postalCode": "24039" },
    { "name": "Gasr Lattache", "postalCode": "24040" },
    { "name": "Guelaat Fiala", "postalCode": "24041" },
    { "name": "Hammam Ouled Ali", "postalCode": "24042" },
    { "name": "Medjez Amar", "postalCode": "24043" },
    { "name": "Moumena", "postalCode": "24044" },
    { "name": "Nador", "postalCode": "24045" },
    { "name": "Nouadria", "postalCode": "24046" },
    { "name": "Oued Fragha", "postalCode": "24047" },
    { "name": "Oued Maiz", "postalCode": "24048" },
    { "name": "Ras el Akba Chtioui Ahmed", "postalCode": "24049" },
    { "name": "Taya", "postalCode": "24050" },
    { "name": "Boudaroua", "postalCode": "24051" },
    { "name": "Ain Kharouba", "postalCode": "24052" },
    { "name": "Ksar el Azeb", "postalCode": "24053" },
    { "name": "El Magroun", "postalCode": "24055" },
    { "name": "Oued el Mellah", "postalCode": "24056" }
  ]
}
