{
  "id": 3,
  "name": "Laghouat",
  "postalCode": "03000",
  "towns": [
    {
      "name": "Laghouat",
      "postalCode": "03000",
      "otherPosts": [
        { "name": "Laghouat Maamourah", "postalCode": "03002" },
        { "name": "Laghouat El Makam", "postalCode": "03006" },
        { "name": "Laghouat Essadikia", "postalCode": "03015" },
        { "name": "Laghouat Cite Nord", "postalCode": "03016" },
        { "name": "Laghouat 1er Nov", "postalCode": "03017" },
        {
          "name": "Laghouat Emir Abdelkader (Gare Routiere)",
          "postalCode": "03018"
        },
        { "name": "Laghouat Djamia", "postalCode": "03035" },
        { "name": "Laghouat DCA", "postalCode": "03048" },
        { "name": "Laghouat Pole 1", "postalCode": "03049" },
        { "name": "Laghouat Air", "postalCode": "03051" },
        { "name": "Laghouat El Wiam", "postalCode": "03052" },
        { "name": "Laghouat Pole universitaire 2", "postalCode": "03054" }
      ]
    },
    {
      "name": "Aflou",
      "postalCode": "03001",
      "otherPosts": [
        { "name": "Aflou Hay El Gaada", "postalCode": "03020" },
        { "name": "Aflou Hai Mohamed Boudiaf", "postalCode": "03021" },
        { "name": "Aflou Zaoui Said", "postalCode": "03047" },
        { "name": "Aflou Universite", "postalCode": "03050" },
        { "name": "Aflou 1 Mai", "postalCode": "03053" }
      ]
    },
    { "name": "Ksar el Hirane", "postalCode": "03003" },
    {
      "name": "Hassi R'mel",
      "postalCode": "03004",
      "otherPosts": [{ "name": "Hassi R'mel 1er Nov", "postalCode": "03009" }]
    },
    { "name": "Brida", "postalCode": "03005" },
    { "name": "Tadjemout", "postalCode": "03007" },
    { "name": "Bellil", "postalCode": "03008" },
    { "name": "El Kheneg", "postalCode": "03010" },
    { "name": "Tadjerouna", "postalCode": "03011" },
    { "name": "Ain Mahdi", "postalCode": "03012" },
    { "name": "Beidha", "postalCode": "03013" },
    { "name": "El Assafia", "postalCode": "03014" },
    { "name": "Sidi Makhlouf", "postalCode": "03019" },
    { "name": "Hassi Delaa", "postalCode": "03022" },
    { "name": "El Ghicha", "postalCode": "03023" },
    { "name": "Sidi Bouzid", "postalCode": "03024" },
    { "name": "Gueltat Sidi Saad", "postalCode": "03025" },
    { "name": "Taouiala", "postalCode": "03026" },
    { "name": "Oued Mourra", "postalCode": "03027" },
    { "name": "Ain Sidi Ali", "postalCode": "03028" },
    { "name": "Ain Skhouna", "postalCode": "03030" },
    { "name": "Chekkala", "postalCode": "03031" },
    { "name": "Bordj Senouci", "postalCode": "03032" },
    { "name": "Benacer Benchohra", "postalCode": "03033" },
    { "name": "Sebgag", "postalCode": "03034" },
    { "name": "Terghalel", "postalCode": "03035" },
    { "name": "Anfous", "postalCode": "03037" },
    { "name": "Hadj Mechri", "postalCode": "03038" },
    { "name": "El Houita", "postalCode": "03040" },
    { "name": "Oued M'zi", "postalCode": "03041" },
    { "name": "Lalmaya", "postalCode": "03042" },
    { "name": "Oued Touil", "postalCode": "03043" },
    { "name": "Hassaien Dhib", "postalCode": "03044" },
    { "name": "Bouzbaeir", "postalCode": "03046" }
  ]
}
