{
  "id": 43,
  "name": "Mila",
  "postalCode": "43000",
  "address": [
    {
      "name": "Mila",
      "postalCode": "43000",
      "otherPosts": [
        { "name": "Mila 8 Mai 1945", "postalCode": "43029" },
        { "name": "Mila Vielle Ville", "postalCode": "43030" },
        { "name": "Mila Sennaoua", "postalCode": "43066" },
        { "name": "Mila Universite", "postalCode": "43072" },
        { "name": "Mila Liberte", "postalCode": "43073" },
        { "name": "Mila Ethnia", "postalCode": "43075" }
      ]
    },
    {
      "name": "Chelghoum Laid",
      "postalCode": "43001",
      "otherPosts": [
        { "name": "Chelghoum Laid 1er Novembre", "postalCode": "43003" },
        { "name": "Cheghloum Laid Abdellah Bacha", "postalCode": "43024" }
      ]
    },
    {
      "name": "Ferdjioua",
      "postalCode": "43002",
      "otherPosts": [
        { "name": "Ferdjioua Bourouh", "postalCode": "43027" },
        { "name": "Ferdjioua Soummam", "postalCode": "43028" },
        { "name": "Ferdjioua Est", "postalCode": "43067" }
      ]
    },
    {
      "name": "Grarem",
      "postalCode": "43004",
      "otherPosts": [
        { "name": "Grarem Safsafa", "postalCode": "43076" },
        { "name": "Grarem Est", "postalCode": "43077" }
      ]
    },
    { "name": "Oued Athmenia", "postalCode": "43005" },
    { "name": "Oued Endja", "postalCode": "43006" },
    {
      "name": "Tadjenanet",
      "postalCode": "43007",
      "otherPosts": [{ "name": "Tadjenanet Centre", "postalCode": "43011" }]
    },
    {
      "name": "Telerghma",
      "postalCode": "43008",
      "otherPosts": [{ "name": "Telerghma Z'mala", "postalCode": "43065" }]
    },
    { "name": "Rouached", "postalCode": "43009" },
    {
      "name": "Sidi Merouane",
      "postalCode": "43010",
      "otherPosts": [
        { "name": "Sidi Merouane Ras el Bir", "postalCode": "43070" }
      ]
    },
    { "name": "Zeghaia", "postalCode": "43012" },
    { "name": "Ahmed Rachdi", "postalCode": "43013" },
    { "name": "Ain Beida Djebel Halfa", "postalCode": "43014" },
    { "name": "Ain Melouk", "postalCode": "43015" },
    { "name": "Ain Tine", "postalCode": "43016" },
    { "name": "Arres", "postalCode": "43017" },
    { "name": "Beinen", "postalCode": "43018" },
    {
      "name": "Beni Guecha",
      "postalCode": "43019",
      "otherPosts": [
        { "name": "Beni Guecha Chouara Torche", "postalCode": "43071" }
      ]
    },
    { "name": "Benyahya Abderrahmane", "postalCode": "43020" },
    { "name": "Bled Youcef", "postalCode": "43021" },
    { "name": "Bouhatem", "postalCode": "43022" },
    { "name": "Boukarana", "postalCode": "43023" },
    { "name": "Chigara", "postalCode": "43025" },
    { "name": "El Mechira", "postalCode": "43026" },
    { "name": "Oued Seguen", "postalCode": "43031" },
    { "name": "Ouled Khellouf", "postalCode": "43032" },
    {
      "name": "Tassadane",
      "postalCode": "43033",
      "otherPosts": [
        { "name": "Tassadane Haddada Lantia", "postalCode": "43074" }
      ]
    },
    { "name": "Tassala", "postalCode": "43034" },
    { "name": "Tiberguent", "postalCode": "43035" },
    { "name": "Zarza", "postalCode": "43036" },
    { "name": "Ain el Hamra", "postalCode": "43037" },
    { "name": "Anouche Ali", "postalCode": "43038" },
    { "name": "Azeba", "postalCode": "43039" },
    { "name": "Ben Boulaid", "postalCode": "43040" },
    { "name": "Bir Branis", "postalCode": "43041" },
    { "name": "Boufoula", "postalCode": "43042" },
    { "name": "Boumalek", "postalCode": "43043" },
    { "name": "Cherra", "postalCode": "43044" },
    { "name": "Dar el Hamra", "postalCode": "43045" },
    { "name": "Derrahi Bousselah", "postalCode": "43046" },
    { "name": "Djebel Aougueb", "postalCode": "43047" },
    { "name": "Draa Benkhalfa", "postalCode": "43048" },
    { "name": "El Arsa", "postalCode": "43049" },
    { "name": "El Ayadi Barbes", "postalCode": "43050" },
    { "name": "Ferdoua", "postalCode": "43051" },
    { "name": "Hamala", "postalCode": "43052" },
    { "name": "Kef Bouderga", "postalCode": "43053" },
    { "name": "Mechtatine", "postalCode": "43055" },
    { "name": "Ouled Bouazoune", "postalCode": "43057" },
    { "name": "Ouled el Kaim", "postalCode": "43058" },
    { "name": "Sareg Derfoul", "postalCode": "43059" },
    { "name": "Sidi Khelifa", "postalCode": "43060" },
    { "name": "Sidi Zerrouk", "postalCode": "43061" },
    { "name": "Tahamachet", "postalCode": "43062" },
    { "name": "Tamoula", "postalCode": "43063" },
    { "name": "Tassaft", "postalCode": "43064" },
    { "name": "Cheglibi Mekhlouf", "postalCode": "43068" },
    { "name": "Ouled Smail", "postalCode": "43069" }
  ]
}
