{
  "id": 48,
  "name": "Relizane",
  "postalCode": "48000",
  "address": [
    {
      "name": "Relizane",
      "postalCode": "48000",
      "otherPosts": [
        { "name": "Relizane Lahmar", "postalCode": "48007" },
        { "name": "Relizane Aissat Idir", "postalCode": "48025" },
        { "name": "Relizane Benaouda Bessaadi", "postalCode": "48026" },
        { "name": "Relizane Berrezga", "postalCode": "48027" },
        { "name": "Relizane 11 Decembre 1960", "postalCode": "48075" },
        { "name": "Relizane Boubekeur", "postalCode": "48076" },
        { "name": "Relizane Universite", "postalCode": "48077" },
        { "name": "Relizane Gare Routiere", "postalCode": "48078" },
        { "name": "Relizane Ben Ali Tenfir Badra", "postalCode": "48079" }
      ]
    },
    {
      "name": "Oued Rhiou",
      "postalCode": "48001",
      "otherPosts": [
        { "name": "Oued Rhiou Boudalia", "postalCode": "48014" },
        { "name": "Oued Rhiou SNMG", "postalCode": "48057" }
      ]
    },
    {
      "name": "Mazouna",
      "postalCode": "48002",
      "otherPosts": [{ "name": "Mazouna El Maaziz", "postalCode": "48010" }]
    },
    { "name": "Sidi M'hamed Ben Ali", "postalCode": "48003" },
    { "name": "Ammi Moussa", "postalCode": "48004" },
    {
      "name": "Jdiouia",
      "postalCode": "48005",
      "otherPosts": [
        { "name": "Jdiouia Soukhal Abdelkader", "postalCode": "48080" }
      ]
    },
    { "name": "L'hillil", "postalCode": "48006" },
    { "name": "Zemmoura", "postalCode": "48008" },
    { "name": "El Matmar", "postalCode": "48009" },
    { "name": "Mediouna", "postalCode": "48011" },
    { "name": "Mendes", "postalCode": "48012" },
    { "name": "Ouarizane", "postalCode": "48013" },
    { "name": "Ain Tarik", "postalCode": "48015" },
    { "name": "El Guettar", "postalCode": "48016" },
    {
      "name": "El H'madna",
      "postalCode": "48017",
      "otherPosts": [{ "name": "El H'madna Bourokba", "postalCode": "48047" }]
    },
    { "name": "Kalaa", "postalCode": "48018" },
    { "name": "Khechan Ben Aissa", "postalCode": "48019" },
    { "name": "Lahlef", "postalCode": "48020" },
    { "name": "Oued el Djemaa", "postalCode": "48021" },
    { "name": "Oued Es Salem", "postalCode": "48022" },
    { "name": "Ouled Meziane", "postalCode": "48023" },
    { "name": "Ramka", "postalCode": "48024" },
    { "name": "Sidi Adda", "postalCode": "48028" },
    { "name": "Sidi Khettab", "postalCode": "48029" },
    { "name": "Sidi M'hamed Ben Aouda", "postalCode": "48030" },
    { "name": "Ahl Abed", "postalCode": "48031" },
    { "name": "Ain Matboul", "postalCode": "48032" },
    { "name": "Ain Rahma", "postalCode": "48033" },
    { "name": "Akerma", "postalCode": "48034" },
    { "name": "Ammamra", "postalCode": "48035" },
    { "name": "Belhacel Bouzegza", "postalCode": "48036" },
    { "name": "Bendaoud", "postalCode": "48037" },
    { "name": "Beni Cheikh", "postalCode": "48038" },
    { "name": "Beni Dergoun", "postalCode": "48039" },
    { "name": "Beni Yassaad", "postalCode": "48040" },
    { "name": "Beni Zenthis", "postalCode": "48041" },
    { "name": "Benziane", "postalCode": "48042" },
    { "name": "Boughiden", "postalCode": "48043" },
    { "name": "Dar Ben Abdellah", "postalCode": "48044" },
    { "name": "El Aouedj", "postalCode": "48045" },
    { "name": "El Hassi", "postalCode": "48046" },
    { "name": "El Ouldja", "postalCode": "48048" },
    { "name": "Grainia", "postalCode": "48049" },
    { "name": "Had Chekalla", "postalCode": "48050" },
    { "name": "Hamri", "postalCode": "48051" },
    { "name": "Kenenda", "postalCode": "48052" },
    { "name": "Khachab Zaghloul", "postalCode": "48053" },
    { "name": "Kharmacha", "postalCode": "48054" },
    { "name": "Marioua", "postalCode": "48055" },
    { "name": "Merdja Sidi Abed", "postalCode": "48056" },
    { "name": "Ouled Bouali", "postalCode": "48058" },
    { "name": "Ouled Bouriah", "postalCode": "48059" },
    { "name": "Ouled Gana", "postalCode": "48060" },
    { "name": "Ouled Sidi Mihoub", "postalCode": "48061" },
    { "name": "Ouled Souid", "postalCode": "48062" },
    { "name": "Semmar", "postalCode": "48063" },
    { "name": "Sidi Bouabdellah", "postalCode": "48064" },
    { "name": "Sidi Lazreg", "postalCode": "48065" },
    { "name": "Sidi Miliani", "postalCode": "48066" },
    { "name": "Sidi Saada", "postalCode": "48067" },
    { "name": "Souk el Had", "postalCode": "48068" },
    { "name": "Tamda", "postalCode": "48070" },
    { "name": "Tamdjet", "postalCode": "48071" },
    { "name": "Tliouanet", "postalCode": "48072" },
    { "name": "Zenainia", "postalCode": "48073" },
    { "name": "Benaada Zagheloul", "postalCode": "48074" }
  ]
}
