{
  "id": 20,
  "name": "Saida",
  "postalCode": "20000",
  "dairas": [
    {
      "name": "Saida",
      "communes": [
        {
          "name": "Saida",
          "codeONS": "",
          "postalCode": "20000",
          "otherPosts": []
        }
      ]
    },
    {
      "name": "AÃ¯n El Hadjar",
      "communes": [
        {
          "name": "Saida",
          "codeONS": "",
          "postalCode": "20000",
          "otherPosts": []
        }
      ]
    },
    {
      "name": "Sidi Boubekeur",
      "communes": [
        {
          "name": "Saida",
          "codeONS": "",
          "postalCode": "20000",
          "otherPosts": []
        }
      ]
    },
    {
      "name": "El Hassasna",
      "communes": [
        {
          "name": "Saida",
          "codeONS": "",
          "postalCode": "20000",
          "otherPosts": []
        }
      ]
    },
    {
      "name": "Ouled Brahim",
      "communes": [
        {
          "name": "Saida",
          "codeONS": "",
          "postalCode": "20000",
          "otherPosts": []
        }
      ]
    },
    {
      "name": "Youb",
      "communes": [
        {
          "name": "Saida",
          "codeONS": "",
          "postalCode": "20000",
          "otherPosts": []
        }
      ]
    }
  ],
  "address": [
    {
      "name": "Saida",
      "postalCode": "20000",
      "otherPosts": [
        { "name": "Saida Boukhors", "postalCode": "20005" },
        { "name": "Saida Ennasr", "postalCode": "20006" },
        { "name": "Saida Cdt Mejdoub", "postalCode": "20015" },
        { "name": "Saida Cite Eriadh", "postalCode": "20016" },
        { "name": "Saida Daoudi", "postalCode": "20017" },
        { "name": "Saida Khater", "postalCode": "20018" },
        { "name": "Saida Soummam", "postalCode": "20042" },
        { "name": "Saida 8 Mai 1945", "postalCode": "20043" },
        { "name": "Saida Universite", "postalCode": "20044" },
        { "name": "Saida Gare Routiere", "postalCode": "20050" }
      ]
    },
    { "name": "Ain el Hadjar", "postalCode": "20001" },
    {
      "name": "Balloul",
      "postalCode": "20002",
      "otherPosts": [{ "name": "Balloul Gare Routiere", "postalCode": "20051" }]
    },
    { "name": "El Hassasna", "postalCode": "20003" },
    { "name": "Rebahia", "postalCode": "20004" },
    {
      "name": "Sidi Boubekeur",
      "postalCode": "20007",
      "otherPosts": [
        { "name": "Sidi Boubekeur Gare Routiere", "postalCode": "20049" }
      ]
    },
    {
      "name": "Youb",
      "postalCode": "20008",
      "otherPosts": [{ "name": "Youb 1er Novembre", "postalCode": "20045" }]
    },
    { "name": "Ain Sekhouna", "postalCode": "20009" },
    { "name": "Boukhors", "postalCode": "20010" },
    { "name": "Hammam Rabbi", "postalCode": "20011" },
    { "name": "Khalfallah", "postalCode": "20012" },
    { "name": "Maamora", "postalCode": "20013" },
    { "name": "Moulay Larbi", "postalCode": "20014" },
    { "name": "Sidi Amar", "postalCode": "20019" },
    { "name": "Ain Teghat", "postalCode": "20020" },
    { "name": "Cherki Sidi Aissa", "postalCode": "20021" },
    { "name": "Dhaiet Zraguet", "postalCode": "20022" },
    { "name": "Fidjel", "postalCode": "20023" },
    { "name": "Hassi el Abed", "postalCode": "20024" },
    { "name": "Hounet", "postalCode": "20025" },
    { "name": "Khelifa Maata", "postalCode": "20026" },
    { "name": "Khourichfa", "postalCode": "20027" },
    { "name": "Loukda Ain Zerga", "postalCode": "20028" },
    { "name": "Mimouna Ain Sultan", "postalCode": "20029" },
    { "name": "Moulay Touhami", "postalCode": "20030" },
    { "name": "Oued Berbour", "postalCode": "20031" },
    { "name": "Sidi Maamar", "postalCode": "20032" },
    { "name": "Sidi Mbarek", "postalCode": "20033" },
    { "name": "Tamesna", "postalCode": "20034" },
    { "name": "Tircine", "postalCode": "20035" },
    { "name": "Touta", "postalCode": "20036" },
    { "name": "Ain el Beidha", "postalCode": "20037" },
    { "name": "Sidi Youcef", "postalCode": "20038" },
    { "name": "Sfid", "postalCode": "20039" },
    { "name": "Sidi Ahmed", "postalCode": "20040" },
    { "name": "El Madene Oued Falette", "postalCode": "20041" },
    { "name": "Morghad", "postalCode": "20046" },
    { "name": "Timetlas", "postalCode": "20047" },
    { "name": "Oum Doud", "postalCode": "20048" }
  ]
}
