{
  "id": 19,
  "name": "Setif",
  "postalCode": "19000",
  "dairas": [
    {
      "name": "Aïn Arnat",
      "communes": [
        {
          "name": "Aïn Arnat",
          "codeONS": "1926",
          "postalCode": "19017",
          "otherPosts": [
            { "name": "Ain Arnat - Base", "postalCode": "19142" },
            { "name": "Ain Arnat - 1 Novembre", "postalCode": "19144" },
            { "name": "El Mahdia", "postalCode": "19044" },
            { "name": "Ain Messaoud", "postalCode": "19073" }
          ]
        },
        {
          "name": "Aïn Abessa",
          "codeONS": "1914",
          "postalCode": "19016",
          "otherPosts": [{ "name": "Batha", "postalCode": "19079" }]
        },
        {
          "name": "El Ouricia",
          "codeONS": "1937",
          "postalCode": "19047",
          "otherPosts": []
        },
        {
          "name": "Mesloug",
          "codeONS": "1933",
          "postalCode": "19056",
          "otherPosts": []
        }
      ]
    },
    {
      "name": "Aïn Azel",
      "communes": [
        {
          "name": "Aïn Azel",
          "codeONS": "1940",
          "postalCode": "19007",
          "otherPosts": [
            { "name": "Ain Azel - Chibi Athmane", "postalCode": "19132" },
            { "name": "Ain Azel - Nord", "postalCode": "19141" }
          ]
        },
        {
          "name": "Aïn Lahdjar",
          "codeONS": "1918",
          "postalCode": "19018",
          "otherPosts": []
        },
        {
          "name": "Beidha Bordj",
          "codeONS": "1929",
          "postalCode": "19021",
          "otherPosts": []
        },
        {
          "name": "Bir Haddada",
          "codeONS": "1934",
          "postalCode": "19039",
          "otherPosts": []
        }
      ]
    },
    {
      "name": "Aïn El Kebira",
      "communes": [
        {
          "name": "Aïn El Kebira",
          "codeONS": "1902",
          "postalCode": "19008",
          "otherPosts": [
            { "name": "Ain el Kebira - Siari Khelifa", "postalCode": "19139" }
          ]
        },
        {
          "name": "Dehamcha",
          "codeONS": "1919",
          "postalCode": "19041",
          "otherPosts": []
        },
        {
          "name": "Ouled Addouane",
          "codeONS": "1924",
          "postalCode": "19058",
          "otherPosts": []
        }
      ]
    },
    {
      "name": "Aïn Oulmene",
      "communes": [
        {
          "name": "Aïn Oulmene",
          "codeONS": "1928",
          "postalCode": "19002",
          "otherPosts": [
            { "name": "Ain Oulmane - Sud", "postalCode": "19129" },
            { "name": "Draa el Miad", "postalCode": "19042" }
          ]
        },
        {
          "name": "Guellal",
          "codeONS": "1948",
          "postalCode": "19050",
          "otherPosts": []
        },
        {
          "name": "Ksar El Abtal",
          "codeONS": "1952",
          "postalCode": "19054",
          "otherPosts": []
        },
        {
          "name": "Ouled Si Ahmed",
          "codeONS": "1904",
          "postalCode": "19121",
          "otherPosts": []
        }
      ]
    },
    {
      "name": "Amoucha",
      "communes": [
        {
          "name": "Amoucha",
          "codeONS": "1927",
          "postalCode": "19009",
          "otherPosts": []
        },
        {
          "name": "Oued El Barad",
          "codeONS": "1957",
          "postalCode": "19115",
          "otherPosts": []
        },
        {
          "name": "Tizi N'Bechar",
          "codeONS": "1938",
          "postalCode": "19068",
          "otherPosts": []
        }
      ]
    },
    {
      "name": "Babor",
      "communes": [
        {
          "name": "Babor",
          "codeONS": "1916",
          "postalCode": "19020",
          "otherPosts": []
        },
        {
          "name": "Serdj El Ghoul",
          "codeONS": "1935",
          "postalCode": "19000",
          "otherPosts": []
        }
      ]
    },
    {
      "name": "Beni Aziz",
      "communes": [
        {
          "name": "Beni Aziz",
          "codeONS": "1903",
          "postalCode": "19010",
          "otherPosts": []
        },
        {
          "name": "Aïn Sebt",
          "codeONS": "1949",
          "postalCode": "19033",
          "otherPosts": []
        },
        {
          "name": "Maaouia",
          "codeONS": "1912",
          "postalCode": "19055",
          "otherPosts": []
        }
      ]
    },
    {
      "name": "Beni Ourtilane",
      "communes": [
        {
          "name": "Beni Ourtilane",
          "codeONS": "1922",
          "postalCode": "19011",
          "otherPosts": [{ "name": "Arassa", "postalCode": "19035" }]
        },
        {
          "name": "Aïn Legradj",
          "codeONS": "1913",
          "postalCode": "19011",
          "otherPosts": [{ "name": "Beni Brahim", "postalCode": "19082" }]
        },
        {
          "name": "Aït Mouhli",
          "codeONS": "1946",
          "postalCode": "19038",
          "otherPosts": []
        },
        {
          "name": "Beni Chebana",
          "codeONS": "1909",
          "postalCode": "19011",
          "otherPosts": [{ "name": "Tarfet", "postalCode": "19031" }]
        }
      ]
    },
    {
      "name": "Bir El Arch",
      "communes": [
        {
          "name": "Bir El Arch",
          "codeONS": "1908",
          "postalCode": "19024",
          "otherPosts": []
        },
        {
          "name": "Belaa",
          "codeONS": "1925",
          "postalCode": "19022",
          "otherPosts": []
        },
        {
          "name": "El Ouldja",
          "codeONS": "1959",
          "postalCode": "19046",
          "otherPosts": []
        },
        {
          "name": "Tachouda",
          "codeONS": "1945",
          "postalCode": "19125",
          "otherPosts": []
        }
      ]
    },
    {
      "name": "Bouandas",
      "communes": [
        {
          "name": "Bouandas",
          "codeONS": "1930",
          "postalCode": "19012",
          "otherPosts": []
        },
        {
          "name": "Aït Noual M'zada",
          "codeONS": "1951",
          "postalCode": "19076",
          "otherPosts": []
        },
        {
          "name": "Aït Tizi",
          "codeONS": "1954",
          "postalCode": "19077",
          "otherPosts": []
        },
        {
          "name": "Bousselam",
          "codeONS": "1919",
          "postalCode": "19052",
          "otherPosts": [
            { "name": "Izatitene", "postalCode": "19052" },
            { "name": "Ain Dokkar", "postalCode": "19070" },
            { "name": "Souk el Had", "postalCode": "19124" }
          ]
        }
      ]
    },
    {
      "name": "Bougaa",
      "communes": [
        {
          "name": "Bougaa",
          "codeONS": "1943",
          "postalCode": "19003",
          "otherPosts": []
        },
        {
          "name": "Aïn Roua",
          "codeONS": "1906",
          "postalCode": "19019",
          "otherPosts": []
        },
        {
          "name": "Beni Hocine",
          "codeONS": "1953",
          "postalCode": "19037",
          "otherPosts": [{ "name": "El Hadra", "postalCode": "19043" }]
        }
      ]
    },
    {
      "name": "Djemila",
      "communes": [
        {
          "name": "Djemila",
          "codeONS": "1921",
          "postalCode": "19025",
          "otherPosts": []
        },
        {
          "name": "Beni Fouda",
          "codeONS": "1944",
          "postalCode": "19023",
          "otherPosts": []
        }
      ]
    },
    {
      "name": "El Eulma",
      "communes": [
        {
          "name": "El Eulma",
          "codeONS": "1920",
          "postalCode": "19001",
          "otherPosts": [
            { "name": "El Eulma - 1er Novembre 1954", "postalCode": "19004" },
            { "name": "El Eulma - 8 Mai 1945", "postalCode": "19005" },
            { "name": "El Eulma - Thabet Bouzid", "postalCode": "19133" },
            { "name": "El Eulma - 19 Juin", "postalCode": "19135" }
          ]
        },
        {
          "name": "Bazer Sakhra",
          "codeONS": "1931",
          "postalCode": "19036",
          "otherPosts": [
            { "name": "El Mellah Hamouchi", "postalCode": "19045" }
          ]
        },
        {
          "name": "Guelta Zerka",
          "codeONS": "1956",
          "postalCode": "19000",
          "otherPosts": []
        }
      ]
    },
    {
      "name": "Guidjel",
      "communes": [
        {
          "name": "Guidjel",
          "codeONS": "1917",
          "postalCode": "19027",
          "otherPosts": [
            { "name": "Vieux Guidjel", "postalCode": "19143" },
            { "name": "Bir Labied", "postalCode": "19040" }
          ]
        },
        {
          "name": "Ouled Saber",
          "codeONS": "1947",
          "postalCode": "19120",
          "otherPosts": []
        }
      ]
    },
    {
      "name": "Guenzet",
      "communes": [
        {
          "name": "Guenzet",
          "codeONS": "1941",
          "postalCode": "19026",
          "otherPosts": []
        },
        {
          "name": "Harbil",
          "codeONS": "1936",
          "postalCode": "19000",
          "otherPosts": [{ "name": "Tittest", "postalCode": "19032" }]
        }
      ]
    },
    {
      "name": "Hammam Guergour",
      "communes": [
        {
          "name": "Hammam Guergour",
          "codeONS": "1950",
          "postalCode": "19051",
          "otherPosts": [{ "name": "Oued Sebt", "postalCode": "19057" }]
        },
        {
          "name": "Draa Kebila - Ouled Ali",
          "codeONS": "1907",
          "postalCode": "19029",
          "otherPosts": []
        }
      ]
    },
    {
      "name": "Hammam Soukhna",
      "communes": [
        {
          "name": "Hammam Soukhna",
          "codeONS": "1932",
          "postalCode": "19066",
          "otherPosts": []
        },
        {
          "name": "Taya",
          "codeONS": "1958",
          "postalCode": "19067",
          "otherPosts": [
            { "name": "Oum Ladjoul", "postalCode": "19059" },
            { "name": "Ain Remada", "postalCode": "19074" }
          ]
        },
        {
          "name": "Tella",
          "codeONS": "1960",
          "postalCode": "19000",
          "otherPosts": []
        }
      ]
    },
    {
      "name": "Maoklane",
      "communes": [
        {
          "name": "Maoklane",
          "codeONS": "1955",
          "postalCode": "19028",
          "otherPosts": [{ "name": "Ain Margoum", "postalCode": "19072" }]
        },
        {
          "name": "Talaifacene - Tizi N'braham",
          "codeONS": "1942",
          "postalCode": "19069",
          "otherPosts": []
        }
      ]
    },
    {
      "name": "Salah Bey",
      "communes": [
        {
          "name": "Salah Bey",
          "codeONS": "1939",
          "postalCode": "19013",
          "otherPosts": [{ "name": "Ain el Hamra", "postalCode": "19071" }]
        },
        {
          "name": "Boutaleb",
          "codeONS": "1905",
          "postalCode": "19092",
          "otherPosts": []
        },
        {
          "name": "Hamma",
          "codeONS": "1911",
          "postalCode": "19106",
          "otherPosts": [{ "name": "Addaoua", "postalCode": "19015" }]
        },
        {
          "name": "Ouled Tebben",
          "codeONS": "1910",
          "postalCode": "19030",
          "otherPosts": []
        },
        {
          "name": "Rasfa",
          "codeONS": "1923",
          "postalCode": "19060",
          "otherPosts": [{ "name": "Ras Isly", "postalCode": "19061" }]
        }
      ]
    },
    {
      "name": "Setif",
      "communes": [
        {
          "name": "Setif",
          "codeONS": "1901",
          "postalCode": "19000",
          "otherPosts": [
            { "name": "Setif - Ben Badis", "postalCode": "19006" },
            { "name": "Setif - 1er Novembre 1954", "postalCode": "19014" },
            { "name": "Setif - Belkhiret", "postalCode": "19062" },
            { "name": "Setif - Cite Mostakbel", "postalCode": "19063" },
            { "name": "Setif - Mansouri Khier", "postalCode": "19064" },
            { "name": "Setif - Yahiaoui", "postalCode": "19065" },
            { "name": "Setif - El Hidhab", "postalCode": "19131" },
            { "name": "Setif - Ain Mous", "postalCode": "19134" },
            { "name": "Setif - Ain Romane", "postalCode": "19136" },
            { "name": "Setif - Universite el Bez", "postalCode": "19137" },
            { "name": "Setif - Universite", "postalCode": "19138" },
            {
              "name": "Setif - Universite Mohamed Lamine Debaghine 2",
              "postalCode": "19140"
            },
            { "name": "Ain Tebinet", "postalCode": "19034" },
            { "name": "Fermatou", "postalCode": "19048" },
            { "name": "Ain Trick", "postalCode": "19075" }
          ]
        }
      ]
    }
  ],
  "address": [
    { "name": "Goutali", "postalCode": "19049" },
    { "name": "Kharba", "postalCode": "19053" },
    { "name": "Akrif Bourdim", "postalCode": "19078" },
    { "name": "Bendiab", "postalCode": "19080" },
    { "name": "Beni Afif", "postalCode": "19081" },
    { "name": "Beni Djemati", "postalCode": "19083" },
    { "name": "Beni Hafed", "postalCode": "19084" },
    { "name": "Beni Khellad", "postalCode": "19085" },
    { "name": "Bida", "postalCode": "19086" },
    { "name": "Bir Djedid", "postalCode": "19087" },
    { "name": "Bouamrane", "postalCode": "19088" },
    { "name": "Boudjelikh", "postalCode": "19089" },
    { "name": "Bouffaroudj", "postalCode": "19090" },
    { "name": "Bouhira", "postalCode": "19091" },
    { "name": "Chaabet Cheurfa", "postalCode": "19093" },
    { "name": "Cheurfa", "postalCode": "19094" },
    { "name": "Chouf el Kedad", "postalCode": "19095" },
    { "name": "Dar el Hadj", "postalCode": "19096" },
    { "name": "Djermane", "postalCode": "19097" },
    { "name": "El Anasser Base", "postalCode": "19098" },
    { "name": "El Hachichia", "postalCode": "19099" },
    { "name": "El Hammam", "postalCode": "19100" },
    { "name": "El Merdja", "postalCode": "19101" },
    { "name": "Faucigny", "postalCode": "19102" },
    { "name": "Freha", "postalCode": "19103" },
    { "name": "Frikat", "postalCode": "19104" },
    { "name": "Gheboula", "postalCode": "19105" },
    { "name": "Khalfoun", "postalCode": "19107" },
    { "name": "Kordjana", "postalCode": "19108" },
    { "name": "Laouameur", "postalCode": "19109" },
    { "name": "Maafeur", "postalCode": "19110" },
    { "name": "Mahouan", "postalCode": "19111" },
    { "name": "Melloul", "postalCode": "19113" },
    { "name": "Merzeghlel", "postalCode": "19114" },
    { "name": "Ouled Ali Ben Nacer", "postalCode": "19116" },
    { "name": "Ouled Ayad", "postalCode": "19117" },
    { "name": "Ouled Maiza", "postalCode": "19118" },
    { "name": "Ouled Mehalla", "postalCode": "19119" },
    { "name": "Sidi Salah", "postalCode": "19122" },
    { "name": "Smara", "postalCode": "19123" },
    { "name": "Zeraia", "postalCode": "19127" },
    { "name": "Chirhoum", "postalCode": "19128" },
    { "name": "Bahbaha", "postalCode": "19130" }
  ]
}
