{
  "id": 41,
  "name": "Souk-Ahras",
  "postalCode": "41000",
  "dairas": [
    {
      "name": "Bir Bou Haouch",
      "communes": [
        {
          "name": "Souk-Ahras",
          "codeONS": "",
          "postalCode": "41000",
          "otherPosts": []
        }
      ]
    },
    {
      "name": "Heddada",
      "communes": [
        {
          "name": "Souk-Ahras",
          "codeONS": "",
          "postalCode": "41000",
          "otherPosts": []
        }
      ]
    },
    {
      "name": "M'daourouch",
      "communes": [
        {
          "name": "Souk-Ahras",
          "codeONS": "",
          "postalCode": "41000",
          "otherPosts": []
        }
      ]
    },
    {
      "name": "Mechroha",
      "communes": [
        {
          "name": "Souk-Ahras",
          "codeONS": "",
          "postalCode": "41000",
          "otherPosts": []
        }
      ]
    },
    {
      "name": "Merahna",
      "communes": [
        {
          "name": "Souk-Ahras",
          "codeONS": "",
          "postalCode": "41000",
          "otherPosts": []
        }
      ]
    },
    {
      "name": "Ouled Driss",
      "communes": [
        {
          "name": "Souk-Ahras",
          "codeONS": "",
          "postalCode": "41000",
          "otherPosts": []
        }
      ]
    },
    {
      "name": "Oum El Adhaim",
      "communes": [
        {
          "name": "Souk-Ahras",
          "codeONS": "",
          "postalCode": "41000",
          "otherPosts": []
        }
      ]
    },
    {
      "name": "Sedrata",
      "communes": [
        {
          "name": "Souk-Ahras",
          "codeONS": "",
          "postalCode": "41000",
          "otherPosts": []
        }
      ]
    },
    {
      "name": "Souk-Ahras",
      "communes": [
        {
          "name": "Souk-Ahras",
          "codeONS": "",
          "postalCode": "41000",
          "otherPosts": []
        }
      ]
    },
    {
      "name": "Taoura",
      "communes": [
        {
          "name": "Souk-Ahras",
          "codeONS": "",
          "postalCode": "41000",
          "otherPosts": []
        }
      ]
    }
  ],
  "address": [
    {
      "name": "Souk-Ahras",
      "postalCode": "41000",
      "otherPosts": [
        { "name": "Souk-Ahras Ibn Khaldoune", "postalCode": "41003" },
        { "name": "Souk-Ahras 8  Mai 1945", "postalCode": "41007" },
        { "name": "Souk-Ahras Berral Salah", "postalCode": "41008" },
        { "name": "Souk-Ahras 17 Octobre", "postalCode": "41021" },
        { "name": "Souk-Ahras Ahmed Draia", "postalCode": "41022" },
        { "name": "Souk-Ahras Alaouia", "postalCode": "41023" },
        { "name": "Souk-Ahras Hamma Loulou", "postalCode": "41024" },
        { "name": "Souk-Ahras Ibn Rochd", "postalCode": "41036" },
        { "name": "Souk-Ahras Universite", "postalCode": "41043" },
        { "name": "Souk-Ahras Gare Routiere", "postalCode": "41046" },
        { "name": "Souk-Ahras Mehdi Mohamed Salah", "postalCode": "41049" }
      ]
    },
    {
      "name": "M'daourouch",
      "postalCode": "41001",
      "otherPosts": [
        { "name": "M'daourouch Achouri Ali", "postalCode": "41041" },
        { "name": "M'daourouch Gare Routiere", "postalCode": "41047" },
        { "name": "M'daourouch Remadnia Ali", "postalCode": "41051" }
      ]
    },
    {
      "name": "Sedrata",
      "postalCode": "41002",
      "otherPosts": [
        { "name": "Sedrata 8 Mai 1945", "postalCode": "41006" },
        { "name": "Sedrata Essanoubar", "postalCode": "41020" },
        { "name": "Sedrata Hadadi Houmana", "postalCode": "41050" }
      ]
    },
    { "name": "Merahna", "postalCode": "41004" },
    { "name": "Ouled Driss", "postalCode": "41005" },
    {
      "name": "Taoura",
      "postalCode": "41009",
      "otherPosts": [
        { "name": "Taoura Institut Veterinaire", "postalCode": "41044" }
      ]
    },
    { "name": "Ain Seynour", "postalCode": "41010" },
    { "name": "Bir Bouhouche", "postalCode": "41011" },
    { "name": "Bir Louhichi", "postalCode": "41012" },
    { "name": "Bordj M'raou", "postalCode": "41013" },
    { "name": "Boumaraf Sebti", "postalCode": "41014" },
    { "name": "Drea", "postalCode": "41015" },
    { "name": "El Betiha", "postalCode": "41016" },
    {
      "name": "Mechrouha",
      "postalCode": "41017",
      "otherPosts": [{ "name": "Mechrouha Sidi Brahim", "postalCode": "41045" }]
    },
    { "name": "Oued Keberit", "postalCode": "41018" },
    { "name": "Oum el Adhaim", "postalCode": "41019" },
    { "name": "Zaarouria", "postalCode": "41025" },
    { "name": "Ain Soltane", "postalCode": "41026" },
    { "name": "Ain Zana", "postalCode": "41027" },
    { "name": "Battoum", "postalCode": "41028" },
    { "name": "Boukebch", "postalCode": "41029" },
    { "name": "El Bordj", "postalCode": "41030" },
    { "name": "Khemissa", "postalCode": "41031" },
    { "name": "Ouillen", "postalCode": "41032" },
    { "name": "Ragouba", "postalCode": "41033" },
    { "name": "Ras el Kef", "postalCode": "41034" },
    { "name": "Safel el Ouiden", "postalCode": "41035" },
    { "name": "Terraguelt", "postalCode": "41037" },
    { "name": "Tiffech", "postalCode": "41038" },
    { "name": "Zouabi", "postalCode": "41039" },
    { "name": "Taghast", "postalCode": "41040" },
    { "name": "Ouled Abbess", "postalCode": "41042" },
    { "name": "Djehifa", "postalCode": "41048" },
    { "name": "El Fouid Benhachiche Rabah", "postalCode": "41052" }
  ]
}
