{
  "id": 15,
  "name": "Tizi-Ouzou",
  "postalCode": "15000",
  "address": [
    {
      "name": "Tizi-Ouzou",
      "postalCode": "15000",
      "otherPosts": [
        { "name": "Tizi-Ouzou Annane Rabah", "postalCode": "15007" },
        { "name": "Tizi-Ouzou Krim Belkacem", "postalCode": "15160" },
        { "name": "Tizi-Ouzou Mouloud Mammeri", "postalCode": "15162" }
      ]
    },
    {
      "name": "Azazga",
      "postalCode": "15001",
      "otherPosts": [{ "name": "Azazga Ville", "postalCode": "15161" }]
    },
    {
      "name": "Ain el Hammam",
      "postalCode": "15002",
      "otherPosts": [
        { "name": "Ain el Hammam Ait Sidi Said", "postalCode": "15164" }
      ]
    },
    { "name": "Boghni", "postalCode": "15003" },
    {
      "name": "Draa ben Khedda",
      "postalCode": "15004",
      "otherPosts": [{ "name": "Draa ben Khedda AADL", "postalCode": "15166" }]
    },
    {
      "name": "Draa el Mizan",
      "postalCode": "15005",
      "otherPosts": [
        { "name": "Draa el Mizan Ali Benour", "postalCode": "15167" }
      ]
    },
    { "name": "Larbaa Nath Irathen", "postalCode": "15006" },
    { "name": "Tizi-Ouzou Chikh Amar Oumhand", "postalCode": "15008" },
    { "name": "Ait Ikhlef", "postalCode": "15009" },
    { "name": "Azeffoun", "postalCode": "15010" },
    { "name": "Beni Douala", "postalCode": "15011" },
    { "name": "Freha", "postalCode": "15012" },
    { "name": "Iferhounene", "postalCode": "15013" },
    { "name": "Mekla", "postalCode": "15014" },
    { "name": "Ouacif", "postalCode": "15015" },
    { "name": "Ouadhia", "postalCode": "15016" },
    { "name": "Souk el Khemis", "postalCode": "15017" },
    {
      "name": "Tadmait",
      "postalCode": "15018",
      "otherPosts": [
        { "name": "Tadmait Sidi Ali Bounab", "postalCode": "15131" }
      ]
    },
    { "name": "Tigzirt", "postalCode": "15019" },
    { "name": "Tizi Ghenif", "postalCode": "15020" },
    { "name": "Aghrib", "postalCode": "15021" },
    { "name": "Agouni Gueghrane", "postalCode": "15022" },
    { "name": "Agouni Ouadellah", "postalCode": "15023" },
    { "name": "Ait Bouadou Kaced Ahmed", "postalCode": "15024" },
    { "name": "Ait Idja", "postalCode": "15025" },
    { "name": "Ait Yahia Moussa", "postalCode": "15026" },
    { "name": "Akerrou", "postalCode": "15027" },
    { "name": "Alma Beni Zmenzer", "postalCode": "15028" },
    { "name": "Beni Yenni", "postalCode": "15029" },
    { "name": "Boudjima", "postalCode": "15030" },
    { "name": "Bounouh", "postalCode": "15031" },
    { "name": "Tala Illilane - Djebel Aissa Mimoun", "postalCode": "15032" },
    { "name": "Djemaa Saharidj", "postalCode": "15033" },
    { "name": "Ifigha", "postalCode": "15034" },
    { "name": "Iguersafene", "postalCode": "15035" },
    { "name": "Illilten", "postalCode": "15036" },
    { "name": "Illoula Oumalou", "postalCode": "15037" },
    { "name": "Irdjen", "postalCode": "15038" },
    { "name": "Izarazene", "postalCode": "15039" },
    { "name": "Makouda", "postalCode": "15040" },
    { "name": "Mechtras", "postalCode": "15041" },
    { "name": "Sidi Naamane", "postalCode": "15042" },
    { "name": "Souama", "postalCode": "15043" },
    { "name": "Taguemount Azouz", "postalCode": "15044" },
    {
      "name": "Tamda",
      "postalCode": "15045",
      "otherPosts": [{ "name": "Tamda Universite", "postalCode": "15163" }]
    },
    { "name": "Tighilt Bougheni", "postalCode": "15046" },
    { "name": "Tikobain", "postalCode": "15047" },
    { "name": "Tirmitine", "postalCode": "15048" },
    { "name": "Tizi-Ntleta", "postalCode": "15049" },
    { "name": "Tizi-Rached", "postalCode": "15050" },
    { "name": "Yakouren", "postalCode": "15051" },
    { "name": "Yetafene", "postalCode": "15052" },
    { "name": "Agouni Bouafir", "postalCode": "15053" },
    { "name": "Agouni Bouragh", "postalCode": "15054" },
    { "name": "Ain Zaouia", "postalCode": "15055" },
    { "name": "Ait Abdelkrim", "postalCode": "15056" },
    { "name": "Ait Abdelmoumene", "postalCode": "15057" },
    { "name": "Ait Agouacha", "postalCode": "15058" },
    { "name": "Ait Chaffa", "postalCode": "15059" },
    { "name": "Ait Saada", "postalCode": "15060" },
    { "name": "Ait Said", "postalCode": "15061" },
    { "name": "Ait Toudert", "postalCode": "15062" },
    { "name": "Attouche", "postalCode": "15063" },
    { "name": "Beni Kouffi", "postalCode": "15064" },
    { "name": "Beni Mendes", "postalCode": "15065" },
    { "name": "Boukhalfa", "postalCode": "15066" },
    { "name": "Frikat", "postalCode": "15067" },
    { "name": "Iflissen", "postalCode": "15068" },
    { "name": "Ighil Bouzrou", "postalCode": "15069" },
    { "name": "Souk el Tenine", "postalCode": "15070" },
    { "name": "Taguemount Oukerrouche", "postalCode": "15071" },
    { "name": "Taka Ath Yahia", "postalCode": "15072" },
    { "name": "Tassaft", "postalCode": "15073" },
    { "name": "Tifra", "postalCode": "15074" },
    { "name": "Tifrit Nath el Hadj", "postalCode": "15075" },
    { "name": "Zekri", "postalCode": "15076" },
    { "name": "Abizar", "postalCode": "15077" },
    { "name": "Adila Tamdikht", "postalCode": "15078" },
    { "name": "Agoulmime", "postalCode": "15079" },
    { "name": "Agouni Oufekous", "postalCode": "15080" },
    { "name": "Agouni Ouzaraz", "postalCode": "15081" },
    { "name": "Ait Atelli", "postalCode": "15082" },
    { "name": "Ait Bouada", "postalCode": "15083" },
    { "name": "Ait Boumahdi", "postalCode": "15084" },
    { "name": "Ait Ergane", "postalCode": "15085" },
    { "name": "Ait Frah", "postalCode": "15086" },
    { "name": "Ait Hessane", "postalCode": "15087" },
    { "name": "Ait Hichem", "postalCode": "15088" },
    { "name": "Ait Idir", "postalCode": "15089" },
    { "name": "Ait Imghour", "postalCode": "15090" },
    { "name": "Ait Issad", "postalCode": "15091" },
    { "name": "Ait Mislane", "postalCode": "15092" },
    { "name": "Ait Ouabane", "postalCode": "15093" },
    { "name": "Ait Smadh", "postalCode": "15094" },
    { "name": "Ait Youcef", "postalCode": "15095" },
    { "name": "Ait Zellal", "postalCode": "15096" },
    { "name": "Akaoudj", "postalCode": "15097" },
    { "name": "Akbil", "postalCode": "15098" },
    { "name": "Azib el Madjene", "postalCode": "15099" },
    { "name": "Azouza", "postalCode": "15100" },
    { "name": "Azroubar Sidhoum Mohamed", "postalCode": "15101" },
    { "name": "Berkouka Amar Akli", "postalCode": "15102" },
    { "name": "Boubehir", "postalCode": "15103" },
    { "name": "Boufhaima", "postalCode": "15104" },
    { "name": "Bouhadj", "postalCode": "15105" },
    { "name": "Bouhinou", "postalCode": "15106" },
    { "name": "Boukellal", "postalCode": "15107" },
    { "name": "Boumahni", "postalCode": "15108" },
    { "name": "Chebel", "postalCode": "15109" },
    { "name": "Cheurfa", "postalCode": "15110" },
    { "name": "Cheurfa Bahloul", "postalCode": "15111" },
    { "name": "Djebla", "postalCode": "15112" },
    { "name": "El Kalaa", "postalCode": "15113" },
    { "name": "Hennia", "postalCode": "15114" },
    { "name": "Iboudrarene", "postalCode": "15115" },
    { "name": "Ichoukren", "postalCode": "15116" },
    { "name": "Ighil Guefri", "postalCode": "15117" },
    { "name": "Iguer Mehdi", "postalCode": "15118" },
    { "name": "Ihdikaouene", "postalCode": "15119" },
    { "name": "Issinadjen", "postalCode": "15120" },
    { "name": "Kemmouda", "postalCode": "15121" },
    { "name": "Koukou", "postalCode": "15122" },
    { "name": "Menacera", "postalCode": "15123" },
    { "name": "Mezguene", "postalCode": "15124" },
    { "name": "Mezrara", "postalCode": "15125" },
    { "name": "Moknea", "postalCode": "15126" },
    { "name": "Ouerdja", "postalCode": "15127" },
    { "name": "Ouled Itchir", "postalCode": "15128" },
    { "name": "Ouled Meriem", "postalCode": "15129" },
    { "name": "Redjaouna", "postalCode": "15130" },
    { "name": "Stita", "postalCode": "15132" },
    { "name": "Taadja", "postalCode": "15133" },
    { "name": "Tabouda", "postalCode": "15134" },
    { "name": "Tafoughalt", "postalCode": "15135" },
    { "name": "Taguemount el Djedid", "postalCode": "15136" },
    { "name": "Taguercift", "postalCode": "15137" },
    { "name": "Tahanouts", "postalCode": "15138" },
    { "name": "Tahouna Takdimt", "postalCode": "15139" },
    { "name": "Taka", "postalCode": "15140" },
    { "name": "Taksebt", "postalCode": "15141" },
    { "name": "Tala Amara", "postalCode": "15142" },
    { "name": "Tala Athmane", "postalCode": "15143" },
    { "name": "Tala Bouzrou", "postalCode": "15144" },
    { "name": "Tala Tegana", "postalCode": "15145" },
    { "name": "Taourirt Amokrane", "postalCode": "15146" },
    { "name": "Taourirt Menguellet", "postalCode": "15147" },
    { "name": "Tazrouts", "postalCode": "15148" },
    { "name": "Tazrart", "postalCode": "15149" },
    { "name": "Tigounatine", "postalCode": "15150" },
    { "name": "Timizart", "postalCode": "15151" },
    { "name": "Timizart Loghbar", "postalCode": "15152" },
    { "name": "Tizi-Lilane", "postalCode": "15153" },
    { "name": "Tizi-Nterga", "postalCode": "15154" },
    { "name": "Tizit", "postalCode": "15155" },
    { "name": "Tizi-Tzougart", "postalCode": "15156" },
    { "name": "Tizra-Aissa", "postalCode": "15157" },
    { "name": "Zeboudj Kara", "postalCode": "15158" },
    { "name": "Zerrouda", "postalCode": "15159" },
    { "name": "Tamassit", "postalCode": "15165" }
  ]
}
