{
  "id": 13,
  "name": "Tlemcen",
  "postalCode": "13000",
  "address": [
    {
      "name": "Tlemcen",
      "postalCode": "13000",
      "otherPosts": [
        { "name": "Tlemcen Cerisiers", "postalCode": "13007" },
        { "name": "Tlemcen Boudghene", "postalCode": "13021" },
        { "name": "Tlemcen Chetouane", "postalCode": "13048" },
        { "name": "Tlemcen Abou Techfine", "postalCode": "13092" },
        { "name": "Tlemcen Oudjlida", "postalCode": "13093" },
        { "name": "Tlemcen Ben Bouali", "postalCode": "13094" },
        { "name": "Tlemcen Belmimoune", "postalCode": "13095" },
        { "name": "Tlemcen Bekhti", "postalCode": "13096" },
        { "name": "Campus Tlemcen", "postalCode": "13097" },
        {
          "name": "Residence Universitaire Mansourah III",
          "postalCode": "13098"
        },
        {
          "name": "Residence Universitaire Tidjani Heddam",
          "postalCode": "13099"
        },
        {
          "name": "Residence Universitaire Mansourah 900 lits",
          "postalCode": "13100"
        },
        {
          "name": "Residence Universitaire Maliha Hamidou",
          "postalCode": "13101"
        },
        {
          "name": "Residence Universitaire Malika Kaid",
          "postalCode": "13102"
        },
        { "name": "Tlemcen Terre", "postalCode": "13103" },
        {
          "name": "Residence Universitaire Soufi Menouar",
          "postalCode": "13104"
        },
        { "name": "Mansourah Bachir el Ibrahimi", "postalCode": "13106" },
        { "name": "Mansourah 700 lits", "postalCode": "13107" },
        { "name": "Tlemcen CHU", "postalCode": "13108" },
        { "name": "Tlemcen Cour", "postalCode": "13109" },
        { "name": "Tlemcen Sidi Said", "postalCode": "13112" },
        { "name": "Tlemcen Gare Routiere", "postalCode": "13114" }
      ]
    },
    {
      "name": "Magnia",
      "postalCode": "13001",
      "otherPosts": [
        { "name": "Maghnia Azzouni", "postalCode": "13003" },
        { "name": "Maghnia Cadi", "postalCode": "13091" },
        { "name": "Maghnia 500 Lits", "postalCode": "13105" }
      ]
    },
    {
      "name": "Ghazaouet",
      "postalCode": "13002",
      "otherPosts": [{ "name": "Ghazaouet Sidi Amar", "postalCode": "13067" }]
    },
    { "name": "Nedroma", "postalCode": "13004" },
    { "name": "Remchi", "postalCode": "13005" },
    { "name": "Sebdou", "postalCode": "13006" },
    { "name": "Bensekrane", "postalCode": "13008" },
    { "name": "Hennaya", "postalCode": "13009" },
    { "name": "Ouled Mimoun Moualid Djelloul", "postalCode": "13010" },
    { "name": "Sabra", "postalCode": "13011" },
    { "name": "Ain Tellout", "postalCode": "13012" },
    { "name": "Ain Youcef", "postalCode": "13013" },
    { "name": "Bab el Assa", "postalCode": "13014" },
    { "name": "Honaine", "postalCode": "13015" },
    { "name": "Imama", "postalCode": "13016" },
    { "name": "Marsa Ben Mhidi", "postalCode": "13017" },
    { "name": "Nedroma Abdelmoumene", "postalCode": "13018" },
    { "name": "Sidi Abdelli", "postalCode": "13019" },
    { "name": "Souahlia", "postalCode": "13020" },
    { "name": "Ain Fezza", "postalCode": "13022" },
    { "name": "Ain Ghoraba", "postalCode": "13023" },
    { "name": "Arbouz", "postalCode": "13024" },
    { "name": "Beni Ouarsous", "postalCode": "13025" },
    { "name": "Bouhallou", "postalCode": "13026" },
    { "name": "Boukanoun", "postalCode": "13027" },
    { "name": "Boutrak", "postalCode": "13028" },
    { "name": "Djabala", "postalCode": "13029" },
    { "name": "El Abed", "postalCode": "13030" },
    { "name": "El Aricha", "postalCode": "13031" },
    { "name": "El Bor", "postalCode": "13032" },
    { "name": "El Fehoul", "postalCode": "13033" },
    { "name": "El Gor", "postalCode": "13034" },
    { "name": "Fillaoucene", "postalCode": "13035" },
    { "name": "Hammam Boughrara", "postalCode": "13036" },
    { "name": "El Khemis Beni Snous", "postalCode": "13037" },
    { "name": "Khemisti", "postalCode": "13038" },
    { "name": "Khoriba", "postalCode": "13039" },
    { "name": "Maaziz", "postalCode": "13040" },
    { "name": "Mezaourou Sidi Brahim", "postalCode": "13041" },
    { "name": "Sebaa Chioukh", "postalCode": "13042" },
    { "name": "Sidi Djilali", "postalCode": "13043" },
    { "name": "Sidi Medjahed", "postalCode": "13044" },
    { "name": "Sidi Zouaoui Keddari Kouider", "postalCode": "13045" },
    { "name": "Souani", "postalCode": "13046" },
    { "name": "Tient", "postalCode": "13047" },
    { "name": "Zouia", "postalCode": "13049" },
    { "name": "Zelboun", "postalCode": "13050" },
    {
      "name": "Zenata",
      "postalCode": "13051",
      "otherPosts": [{ "name": "Zenata Airoport", "postalCode": "13088" }]
    },
    { "name": "Ain el Houtz", "postalCode": "13052" },
    { "name": "Ain Kebira", "postalCode": "13053" },
    { "name": "Ain Nahala", "postalCode": "13054" },
    { "name": "Ain Nekrouf", "postalCode": "13055" },
    { "name": "Ain Zana Chebika", "postalCode": "13056" },
    { "name": "Akid Lotfi", "postalCode": "13057" },
    { "name": "Amieur", "postalCode": "13058" },
    { "name": "Belhadji Youcif", "postalCode": "13059" },
    { "name": "Beni Bahdel", "postalCode": "13060" },
    { "name": "Beni Mester", "postalCode": "13061" },
    {
      "name": "Bouhenak",
      "postalCode": "13062",
      "otherPosts": [{ "name": "Bouhenak Jasmins", "postalCode": "13084" }]
    },
    { "name": "Dar Yaghmouracene", "postalCode": "13063" },
    { "name": "Djamaa Sekhra", "postalCode": "13064" },
    { "name": "Djebra Chelaida", "postalCode": "13065" },
    { "name": "El Bouihi", "postalCode": "13066" },
    { "name": "Oued Lakhdar", "postalCode": "13068" },
    { "name": "Oued Zitoun", "postalCode": "13069" },
    { "name": "Ouled Riah", "postalCode": "13070" },
    { "name": "Ramla", "postalCode": "13071" },
    { "name": "Sidi Bendiaf", "postalCode": "13072" },
    { "name": "Sidi Bounouar", "postalCode": "13073" },
    { "name": "Sidi Driss", "postalCode": "13074" },
    { "name": "Sidi Mechhor", "postalCode": "13075" },
    { "name": "Sidi Senoussi", "postalCode": "13076" },
    { "name": "Souk el Khemis", "postalCode": "13077" },
    { "name": "Souk Tlata", "postalCode": "13078" },
    { "name": "Terny", "postalCode": "13079" },
    { "name": "Tleta", "postalCode": "13080" },
    { "name": "Yembou", "postalCode": "13081" },
    { "name": "Zekri Moussa Adjaidja", "postalCode": "13082" },
    { "name": "Ouzidane", "postalCode": "13083" },
    { "name": "El Fahs Beni Senous", "postalCode": "13085" },
    { "name": "Ain Isser", "postalCode": "13086" },
    { "name": "Sidi Yahya", "postalCode": "13087" },
    { "name": "Bekhata", "postalCode": "13089" },
    { "name": "Ouchba", "postalCode": "13090" },
    { "name": "Tafesra", "postalCode": "13110" },
    { "name": "Koudia", "postalCode": "13111" },
    { "name": "Sebdou Dermam", "postalCode": "13113" }
  ]
}
